[{"OBJECT_NAME":"STARLINK-2498","OBJECT_ID":"2021-036BC","EPOCH":"2026-03-10T00:00:02.999808","MEAN_MOTION":15.24739601,"ECCENTRICITY":0.00016198,"INCLINATION":53.1352,"RA_OF_ASC_NODE":99.5627,"ARG_OF_PERICENTER":86.5497,"MEAN_ANOMALY":127.7811,"EPHEMERIS_TYPE":0,"CLASSIFICATION_TYPE":"U","NORAD_CAT_ID":48326,"ELEMENT_SET_NO":999,"REV_AT_EPOCH":579,"BSTAR":0.033082755,"MEAN_MOTION_DOT":0.00894242,"MEAN_MOTION_DDOT":0},{"OBJECT_NAME":"CZ-6A DEB","OBJECT_ID":"2022-151ADD","EPOCH":"2026-03-09T18:20:47.462208","MEAN_MOTION":15.20298953,"ECCENTRICITY":0.00285544,"INCLINATION":98.6309,"RA_OF_ASC_NODE":152.6578,"ARG_OF_PERICENTER":173.2603,"MEAN_ANOMALY":186.9019,"EPHEMERIS_TYPE":0,"CLASSIFICATION_TYPE":"U","NORAD_CAT_ID":56285,"ELEMENT_SET_NO":999,"REV_AT_EPOCH":17182,"BSTAR":0.0066325049,"MEAN_MOTION_DOT":0.00148374,"MEAN_MOTION_DDOT":0}]
